[{"OBJECT_NAME":"STARLINK-36598","OBJECT_ID":"2026-033Z","EPOCH":"2026-03-05T00:08:26.010240","MEAN_MOTION":15.82751344,"ECCENTRICITY":0.0003479,"INCLINATION":42.996,"RA_OF_ASC_NODE":299.9925,"ARG_OF_PERICENTER":256.596,"MEAN_ANOMALY":103.4524,"EPHEMERIS_TYPE":0,"CLASSIFICATION_TYPE":"U","NORAD_CAT_ID":67844,"ELEMENT_SET_NO":999,"REV_AT_EPOCH":388,"BSTAR":0.0027551,"MEAN_MOTION_DOT":0.00646893,"MEAN_MOTION_DDOT":0},{"OBJECT_NAME":"STARLINK-36606","OBJECT_ID":"2026-033AA","EPOCH":"2026-03-05T03:09:20.688480","MEAN_MOTION":15.82084793,"ECCENTRICITY":0.0002318,"INCLINATION":42.9974,"RA_OF_ASC_NODE":299.2134,"ARG_OF_PERICENTER":250.3246,"MEAN_ANOMALY":109.7375,"EPHEMERIS_TYPE":0,"CLASSIFICATION_TYPE":"U","NORAD_CAT_ID":67845,"ELEMENT_SET_NO":999,"REV_AT_EPOCH":390,"BSTAR":0.0012321,"MEAN_MOTION_DOT":0.00267964,"MEAN_MOTION_DDOT":0},{"OBJECT_NAME":"STARLINK-36658","OBJECT_ID":"2026-033AB","EPOCH":"2026-03-05T00:06:26.503488","MEAN_MOTION":15.82063707,"ECCENTRICITY":0.0002029,"INCLINATION":42.9967,"RA_OF_ASC_NODE":299.981,"ARG_OF_PERICENTER":280.8257,"MEAN_ANOMALY":79.2387,"EPHEMERIS_TYPE":0,"CLASSIFICATION_TYPE":"U","NORAD_CAT_ID":67846,"ELEMENT_SET_NO":999,"REV_AT_EPOCH":388,"BSTAR":0.00074005,"MEAN_MOTION_DOT":0.00158539,"MEAN_MOTION_DDOT":0},{"OBJECT_NAME":"STARLINK-36618","OBJECT_ID":"2026-033AC","EPOCH":"2026-03-05T04:00:01.999584","MEAN_MOTION":15.94502697,"ECCENTRICITY":0.0002414,"INCLINATION":42.9849,"RA_OF_ASC_NODE":297.1752,"ARG_OF_PERICENTER":272.684,"MEAN_ANOMALY":286.4505,"EPHEMERIS_TYPE":0,"CLASSIFICATION_TYPE":"U","NORAD_CAT_ID":67847,"ELEMENT_SET_NO":999,"REV_AT_EPOCH":393,"BSTAR":-0.0039942,"MEAN_MOTION_DOT":-0.0156258,"MEAN_MOTION_DDOT":0.00070109},{"OBJECT_NAME":"STARLINK-36660","OBJECT_ID":"2026-033AD","EPOCH":"2026-03-05T03:07:10.831008","MEAN_MOTION":15.8211875,"ECCENTRICITY":0.0002877,"INCLINATION":42.9965,"RA_OF_ASC_NODE":299.2013,"ARG_OF_PERICENTER":254.0868,"MEAN_ANOMALY":105.9686,"EPHEMERIS_TYPE":0,"CLASSIFICATION_TYPE":"U","NORAD_CAT_ID":67848,"ELEMENT_SET_NO":999,"REV_AT_EPOCH":390,"BSTAR":0.0017923,"MEAN_MOTION_DOT":0.00396577,"MEAN_MOTION_DDOT":0},{"OBJECT_NAME":"STARLINK-36602","OBJECT_ID":"2026-033AE","EPOCH":"2026-03-05T03:06:06.642720","MEAN_MOTION":15.82074085,"ECCENTRICITY":0.0002126,"INCLINATION":42.9979,"RA_OF_ASC_NODE":299.1943,"ARG_OF_PERICENTER":274.2781,"MEAN_ANOMALY":85.7847,"EPHEMERIS_TYPE":0,"CLASSIFICATION_TYPE":"U","NORAD_CAT_ID":67849,"ELEMENT_SET_NO":999,"REV_AT_EPOCH":390,"BSTAR":0.001146,"MEAN_MOTION_DOT":0.00248498,"MEAN_MOTION_DDOT":0},{"OBJECT_NAME":"STARLINK-36840","OBJECT_ID":"2026-034A","EPOCH":"2026-03-05T04:18:57.417408","MEAN_MOTION":15.80976215,"ECCENTRICITY":0.0001383,"INCLINATION":53.1588,"RA_OF_ASC_NODE":233.9596,"ARG_OF_PERICENTER":66.1131,"MEAN_ANOMALY":294.0037,"EPHEMERIS_TYPE":0,"CLASSIFICATION_TYPE":"U","NORAD_CAT_ID":67850,"ELEMENT_SET_NO":999,"REV_AT_EPOCH":322,"BSTAR":0.0017999,"MEAN_MOTION_DOT":0.00372038,"MEAN_MOTION_DDOT":0},{"OBJECT_NAME":"STARLINK-36348","OBJECT_ID":"2026-034B","EPOCH":"2026-03-05T01:15:48.032928","MEAN_MOTION":15.80988938,"ECCENTRICITY":5.66e-5,"INCLINATION":53.1591,"RA_OF_ASC_NODE":234.5877,"ARG_OF_PERICENTER":67.4526,"MEAN_ANOMALY":292.6556,"EPHEMERIS_TYPE":0,"CLASSIFICATION_TYPE":"U","NORAD_CAT_ID":67851,"ELEMENT_SET_NO":999,"REV_AT_EPOCH":320,"BSTAR":0.0018637,"MEAN_MOTION_DOT":0.00386149,"MEAN_MOTION_DDOT":0},{"OBJECT_NAME":"STARLINK-36276","OBJECT_ID":"2026-034C","EPOCH":"2026-03-05T00:00:01.999296","MEAN_MOTION":15.80849739,"ECCENTRICITY":0.0001111,"INCLINATION":53.1586,"RA_OF_ASC_NODE":234.8433,"ARG_OF_PERICENTER":45.5406,"MEAN_ANOMALY":19.2146,"EPHEMERIS_TYPE":0,"CLASSIFICATION_TYPE":"U","NORAD_CAT_ID":67852,"ELEMENT_SET_NO":999,"REV_AT_EPOCH":310,"BSTAR":0.00031897,"MEAN_MOTION_DOT":0.00062644,"MEAN_MOTION_DDOT":0},{"OBJECT_NAME":"STARLINK-36785","OBJECT_ID":"2026-034D","EPOCH":"2026-03-05T01:13:37.821216","MEAN_MOTION":15.80942356,"ECCENTRICITY":0.0001112,"INCLINATION":53.1594,"RA_OF_ASC_NODE":234.577,"ARG_OF_PERICENTER":29.209,"MEAN_ANOMALY":330.8995,"EPHEMERIS_TYPE":0,"CLASSIFICATION_TYPE":"U","NORAD_CAT_ID":67853,"ELEMENT_SET_NO":999,"REV_AT_EPOCH":320,"BSTAR":0.0010743,"MEAN_MOTION_DOT":0.00217453,"MEAN_MOTION_DDOT":0},{"OBJECT_NAME":"STARLINK-36608","OBJECT_ID":"2026-034E","EPOCH":"2026-03-05T04:14:38.135328","MEAN_MOTION":15.80973098,"ECCENTRICITY":9.58e-5,"INCLINATION":53.159,"RA_OF_ASC_NODE":233.9387,"ARG_OF_PERICENTER":97.857,"MEAN_ANOMALY":262.2562,"EPHEMERIS_TYPE":0,"CLASSIFICATION_TYPE":"U","NORAD_CAT_ID":67854,"ELEMENT_SET_NO":999,"REV_AT_EPOCH":321,"BSTAR":0.0017415,"MEAN_MOTION_DOT":0.00359378,"MEAN_MOTION_DDOT":0},{"OBJECT_NAME":"STARLINK-36838","OBJECT_ID":"2026-034F","EPOCH":"2026-03-05T04:13:33.282624","MEAN_MOTION":15.80960467,"ECCENTRICITY":8.96e-5,"INCLINATION":53.1591,"RA_OF_ASC_NODE":233.9332,"ARG_OF_PERICENTER":68.4455,"MEAN_ANOMALY":291.6663,"EPHEMERIS_TYPE":0,"CLASSIFICATION_TYPE":"U","NORAD_CAT_ID":67855,"ELEMENT_SET_NO":999,"REV_AT_EPOCH":322,"BSTAR":0.0016948,"MEAN_MOTION_DOT":0.00349087,"MEAN_MOTION_DDOT":0},{"OBJECT_NAME":"STARLINK-36843","OBJECT_ID":"2026-034G","EPOCH":"2026-03-05T04:11:23.544384","MEAN_MOTION":15.80976264,"ECCENTRICITY":7.79e-5,"INCLINATION":53.159,"RA_OF_ASC_NODE":233.9235,"ARG_OF_PERICENTER":64.6766,"MEAN_ANOMALY":295.4338,"EPHEMERIS_TYPE":0,"CLASSIFICATION_TYPE":"U","NORAD_CAT_ID":67856,"ELEMENT_SET_NO":999,"REV_AT_EPOCH":322,"BSTAR":0.0017369,"MEAN_MOTION_DOT":0.00358428,"MEAN_MOTION_DDOT":0},{"OBJECT_NAME":"STARLINK-36828","OBJECT_ID":"2026-034H","EPOCH":"2026-03-05T04:12:29.039040","MEAN_MOTION":15.81010384,"ECCENTRICITY":0.0002324,"INCLINATION":53.1589,"RA_OF_ASC_NODE":233.929,"ARG_OF_PERICENTER":67.4083,"MEAN_ANOMALY":292.7186,"EPHEMERIS_TYPE":0,"CLASSIFICATION_TYPE":"U","NORAD_CAT_ID":67857,"ELEMENT_SET_NO":999,"REV_AT_EPOCH":322,"BSTAR":0.002243,"MEAN_MOTION_DOT":0.00469889,"MEAN_MOTION_DDOT":0},{"OBJECT_NAME":"STARLINK-36837","OBJECT_ID":"2026-034J","EPOCH":"2026-03-05T04:10:18.815232","MEAN_MOTION":15.80979659,"ECCENTRICITY":8.89e-5,"INCLINATION":53.1591,"RA_OF_ASC_NODE":233.9174,"ARG_OF_PERICENTER":59.7101,"MEAN_ANOMALY":300.401,"EPHEMERIS_TYPE":0,"CLASSIFICATION_TYPE":"U","NORAD_CAT_ID":67858,"ELEMENT_SET_NO":999,"REV_AT_EPOCH":322,"BSTAR":0.0016735,"MEAN_MOTION_DOT":0.00344818,"MEAN_MOTION_DDOT":0},{"OBJECT_NAME":"STARLINK-36393","OBJECT_ID":"2026-034K","EPOCH":"2026-03-05T04:09:14.098176","MEAN_MOTION":15.80977481,"ECCENTRICITY":0.0001317,"INCLINATION":53.1592,"RA_OF_ASC_NODE":233.9124,"ARG_OF_PERICENTER":96.3204,"MEAN_ANOMALY":263.7968,"EPHEMERIS_TYPE":0,"CLASSIFICATION_TYPE":"U","NORAD_CAT_ID":67859,"ELEMENT_SET_NO":999,"REV_AT_EPOCH":322,"BSTAR":0.0017993,"MEAN_MOTION_DOT":0.00371934,"MEAN_MOTION_DDOT":0},{"OBJECT_NAME":"STARLINK-35873","OBJECT_ID":"2026-034L","EPOCH":"2026-03-05T04:08:09.923712","MEAN_MOTION":15.81002677,"ECCENTRICITY":0.0002417,"INCLINATION":53.1592,"RA_OF_ASC_NODE":233.9076,"ARG_OF_PERICENTER":73.4114,"MEAN_ANOMALY":286.7174,"EPHEMERIS_TYPE":0,"CLASSIFICATION_TYPE":"U","NORAD_CAT_ID":67860,"ELEMENT_SET_NO":999,"REV_AT_EPOCH":325,"BSTAR":0.0021078,"MEAN_MOTION_DOT":0.00439808,"MEAN_MOTION_DDOT":0},{"OBJECT_NAME":"STARLINK-36325","OBJECT_ID":"2026-034M","EPOCH":"2026-03-05T00:00:01.999296","MEAN_MOTION":15.80865682,"ECCENTRICITY":6.77e-5,"INCLINATION":53.1586,"RA_OF_ASC_NODE":234.7631,"ARG_OF_PERICENTER":73.4798,"MEAN_ANOMALY":29.7144,"EPHEMERIS_TYPE":0,"CLASSIFICATION_TYPE":"U","NORAD_CAT_ID":67861,"ELEMENT_SET_NO":999,"REV_AT_EPOCH":310,"BSTAR":0.00015335,"MEAN_MOTION_DOT":0.00029661,"MEAN_MOTION_DDOT":0},{"OBJECT_NAME":"STARLINK-36332","OBJECT_ID":"2026-034N","EPOCH":"2026-03-05T00:00:01.999296","MEAN_MOTION":15.80843503,"ECCENTRICITY":0.000107,"INCLINATION":53.1585,"RA_OF_ASC_NODE":234.7546,"ARG_OF_PERICENTER":75.3785,"MEAN_ANOMALY":32.1074,"EPHEMERIS_TYPE":0,"CLASSIFICATION_TYPE":"U","NORAD_CAT_ID":67862,"ELEMENT_SET_NO":999,"REV_AT_EPOCH":310,"BSTAR":0.00026944,"MEAN_MOTION_DOT":0.00052732,"MEAN_MOTION_DDOT":0},{"OBJECT_NAME":"STARLINK-36835","OBJECT_ID":"2026-034P","EPOCH":"2026-03-05T00:00:01.999296","MEAN_MOTION":15.80832226,"ECCENTRICITY":0.0001168,"INCLINATION":53.1588,"RA_OF_ASC_NODE":234.7446,"ARG_OF_PERICENTER":71.2935,"MEAN_ANOMALY":40.4503,"EPHEMERIS_TYPE":0,"CLASSIFICATION_TYPE":"U","NORAD_CAT_ID":67863,"ELEMENT_SET_NO":999,"REV_AT_EPOCH":310,"BSTAR":0.00051458,"MEAN_MOTION_DOT":0.00101876,"MEAN_MOTION_DDOT":0},{"OBJECT_NAME":"STARLINK-36831","OBJECT_ID":"2026-034Q","EPOCH":"2026-03-05T04:03:50.067072","MEAN_MOTION":15.80968154,"ECCENTRICITY":0.0001628,"INCLINATION":53.1585,"RA_OF_ASC_NODE":233.8864,"ARG_OF_PERICENTER":49.9378,"MEAN_ANOMALY":310.1788,"EPHEMERIS_TYPE":0,"CLASSIFICATION_TYPE":"U","NORAD_CAT_ID":67864,"ELEMENT_SET_NO":999,"REV_AT_EPOCH":322,"BSTAR":0.0016156,"MEAN_MOTION_DOT":0.003322,"MEAN_MOTION_DDOT":0},{"OBJECT_NAME":"STARLINK-36738","OBJECT_ID":"2026-034R","EPOCH":"2026-03-05T00:00:01.999296","MEAN_MOTION":15.80874076,"ECCENTRICITY":4.38e-5,"INCLINATION":53.1587,"RA_OF_ASC_NODE":234.7274,"ARG_OF_PERICENTER":90.8552,"MEAN_ANOMALY":29.4133,"EPHEMERIS_TYPE":0,"CLASSIFICATION_TYPE":"U","NORAD_CAT_ID":67865,"ELEMENT_SET_NO":999,"REV_AT_EPOCH":310,"BSTAR":0.00015883,"MEAN_MOTION_DOT":0.00030762,"MEAN_MOTION_DDOT":0},{"OBJECT_NAME":"STARLINK-36780","OBJECT_ID":"2026-034S","EPOCH":"2026-03-05T04:00:01.999584","MEAN_MOTION":15.80845311,"ECCENTRICITY":0.0001327,"INCLINATION":53.1592,"RA_OF_ASC_NODE":233.8808,"ARG_OF_PERICENTER":66.7963,"MEAN_ANOMALY":286.8348,"EPHEMERIS_TYPE":0,"CLASSIFICATION_TYPE":"U","NORAD_CAT_ID":67866,"ELEMENT_SET_NO":999,"REV_AT_EPOCH":313,"BSTAR":0.00035631,"MEAN_MOTION_DOT":0.00070108,"MEAN_MOTION_DDOT":0}]
